STARLINK-6239           
1 56423U 23061BB  26067.56304732  .00000631  00000+0  61796-4 0  9995
2 56423  43.0027 177.7115 0001169 275.8336  84.2373 15.02537229156889
KOMPSAT-7               
1 66820U 25279A   26068.87103100  .00004022  00000+0  31599-3 0  9996
2 66820  97.6738  18.4558 0009895 343.5135  16.5766 15.01421798 14723
